[
  {
    "OBJECT_NAME": "SENTINEL-6",
    "OBJECT_ID": "2020-086A",
    "EPOCH": "2025-04-16T22:43:44.589504",
    "MEAN_MOTION": 12.80929629,
    "ECCENTRICITY": 0.0007858,
    "INCLINATION": 66.0408,
    "RA_OF_ASC_NODE": 300.3607,
    "ARG_OF_PERICENTER": 271.475,
    "MEAN_ANOMALY": 88.5365,
    "EPHEMERIS_TYPE": 0,
    "CLASSIFICATION_TYPE": "U",
    "NORAD_CAT_ID": 46984,
    "ELEMENT_SET_NO": 999,
    "REV_AT_EPOCH": 20573,
    "BSTAR": 8.364e-5,
    "MEAN_MOTION_DOT": -4.2e-7,
    "MEAN_MOTION_DDOT": 0
  },
  {
    "OBJECT_NAME": "GAOFEN-12 02",
    "OBJECT_ID": "2021-026A",
    "EPOCH": "2025-04-16T22:39:57.049920",
    "MEAN_MOTION": 14.80332002,
    "ECCENTRICITY": 0.0002965,
    "INCLINATION": 97.9735,
    "RA_OF_ASC_NODE": 102.3174,
    "ARG_OF_PERICENTER": 135.6797,
    "MEAN_ANOMALY": 224.4652,
    "EPHEMERIS_TYPE": 0,
    "CLASSIFICATION_TYPE": "U",
    "NORAD_CAT_ID": 48079,
    "ELEMENT_SET_NO": 999,
    "REV_AT_EPOCH": 21869,
    "BSTAR": 0.00022907,
    "MEAN_MOTION_DOT": 1.694e-5,
    "MEAN_MOTION_DDOT": 0
  },
  {
    "OBJECT_NAME": "PLEIADES NEO 3",
    "OBJECT_ID": "2021-034A",
    "EPOCH": "2025-04-16T17:14:02.033376",
    "MEAN_MOTION": 14.81680143,
    "ECCENTRICITY": 9.95e-5,
    "INCLINATION": 97.894,
    "RA_OF_ASC_NODE": 182.6022,
    "ARG_OF_PERICENTER": 118.2362,
    "MEAN_ANOMALY": 241.8952,
    "EPHEMERIS_TYPE": 0,
    "CLASSIFICATION_TYPE": "U",
    "NORAD_CAT_ID": 48268,
    "ELEMENT_SET_NO": 999,
    "REV_AT_EPOCH": 21450,
    "BSTAR": 0.00034908,
    "MEAN_MOTION_DOT": 2.696e-5,
    "MEAN_MOTION_DDOT": 0
  },
  {
    "OBJECT_NAME": "PLEIADES NEO 4",
    "OBJECT_ID": "2021-073E",
    "EPOCH": "2025-04-16T21:17:08.520288",
    "MEAN_MOTION": 14.81683128,
    "ECCENTRICITY": 0.0001067,
    "INCLINATION": 97.8939,
    "RA_OF_ASC_NODE": 182.7636,
    "ARG_OF_PERICENTER": 127.0141,
    "MEAN_ANOMALY": 233.1169,
    "EPHEMERIS_TYPE": 0,
    "CLASSIFICATION_TYPE": "U",
    "NORAD_CAT_ID": 49070,
    "ELEMENT_SET_NO": 999,
    "REV_AT_EPOCH": 19824,
    "BSTAR": 0.00068311,
    "MEAN_MOTION_DOT": 5.329e-5,
    "MEAN_MOTION_DDOT": 0
  },
  {
    "OBJECT_NAME": "LANDSAT 9",
    "OBJECT_ID": "2021-088A",
    "EPOCH": "2025-04-16T18:13:05.837376",
    "MEAN_MOTION": 14.57122281,
    "ECCENTRICITY": 0.0001152,
    "INCLINATION": 98.1921,
    "RA_OF_ASC_NODE": 178.1645,
    "ARG_OF_PERICENTER": 87.9502,
    "MEAN_ANOMALY": 272.1828,
    "EPHEMERIS_TYPE": 0,
    "CLASSIFICATION_TYPE": "U",
    "NORAD_CAT_ID": 49260,
    "ELEMENT_SET_NO": 999,
    "REV_AT_EPOCH": 18890,
    "BSTAR": 0.00021357,
    "MEAN_MOTION_DOT": 9.17e-6,
    "MEAN_MOTION_DDOT": 0
  },
  {
    "OBJECT_NAME": "CSG-2",
    "OBJECT_ID": "2022-008A",
    "EPOCH": "2025-04-16T21:23:20.420448",
    "MEAN_MOTION": 14.82162201,
    "ECCENTRICITY": 0.0001432,
    "INCLINATION": 97.8877,
    "RA_OF_ASC_NODE": 291.6809,
    "ARG_OF_PERICENTER": 87.1322,
    "MEAN_ANOMALY": 273.0055,
    "EPHEMERIS_TYPE": 0,
    "CLASSIFICATION_TYPE": "U",
    "NORAD_CAT_ID": 51444,
    "ELEMENT_SET_NO": 999,
    "REV_AT_EPOCH": 17344,
    "BSTAR": 0.00018751,
    "MEAN_MOTION_DOT": 1.441e-5,
    "MEAN_MOTION_DDOT": 0
  },
  {
    "OBJECT_NAME": "GAOFEN-12 03",
    "OBJECT_ID": "2022-069A",
    "EPOCH": "2025-04-16T22:44:07.278144",
    "MEAN_MOTION": 14.81076504,
    "ECCENTRICITY": 9.41e-5,
    "INCLINATION": 97.8767,
    "RA_OF_ASC_NODE": 359.2052,
    "ARG_OF_PERICENTER": 289.2095,
    "MEAN_ANOMALY": 70.9016,
    "EPHEMERIS_TYPE": 0,
    "CLASSIFICATION_TYPE": "U",
    "NORAD_CAT_ID": 52912,
    "ELEMENT_SET_NO": 999,
    "REV_AT_EPOCH": 15156,
    "BSTAR": 0.00090231,
    "MEAN_MOTION_DOT": 6.955e-5,
    "MEAN_MOTION_DDOT": 0
  },
  {
    "OBJECT_NAME": "SWOT",
    "OBJECT_ID": "2022-173A",
    "EPOCH": "2025-04-16T21:45:31.706208",
    "MEAN_MOTION": 14.00169904,
    "ECCENTRICITY": 6.26e-5,
    "INCLINATION": 77.6091,
    "RA_OF_ASC_NODE": 250.7379,
    "ARG_OF_PERICENTER": 325.7805,
    "MEAN_ANOMALY": 34.3306,
    "EPHEMERIS_TYPE": 0,
    "CLASSIFICATION_TYPE": "U",
    "NORAD_CAT_ID": 54754,
    "ELEMENT_SET_NO": 999,
    "REV_AT_EPOCH": 11949,
    "BSTAR": 0.0001079,
    "MEAN_MOTION_DOT": 1.57e-6,
    "MEAN_MOTION_DDOT": 0
  },
  {
    "OBJECT_NAME": "GAOFEN-12 04",
    "OBJECT_ID": "2023-123A",
    "EPOCH": "2025-04-16T21:52:36.102144",
    "MEAN_MOTION": 14.81027091,
    "ECCENTRICITY": 0.0003238,
    "INCLINATION": 97.9113,
    "RA_OF_ASC_NODE": 26.1838,
    "ARG_OF_PERICENTER": 80.7464,
    "MEAN_ANOMALY": 279.4114,
    "EPHEMERIS_TYPE": 0,
    "CLASSIFICATION_TYPE": "U",
    "NORAD_CAT_ID": 57654,
    "ELEMENT_SET_NO": 999,
    "REV_AT_EPOCH": 8957,
    "BSTAR": 0.00086345,
    "MEAN_MOTION_DOT": 6.646e-5,
    "MEAN_MOTION_DDOT": 0
  },
  {
    "OBJECT_NAME": "PARS 1",
    "OBJECT_ID": "2024-039Q",
    "EPOCH": "2025-04-16T21:26:20.300064",
    "MEAN_MOTION": 15.35376149,
    "ECCENTRICITY": 0.0010773,
    "INCLINATION": 97.4362,
    "RA_OF_ASC_NODE": 74.3629,
    "ARG_OF_PERICENTER": 198.9038,
    "MEAN_ANOMALY": 161.1807,
    "EPHEMERIS_TYPE": 0,
    "CLASSIFICATION_TYPE": "U",
    "NORAD_CAT_ID": 59065,
    "ELEMENT_SET_NO": 999,
    "REV_AT_EPOCH": 6302,
    "BSTAR": 0.00088349,
    "MEAN_MOTION_DOT": 0.00030416,
    "MEAN_MOTION_DDOT": 0
  },
  {
    "OBJECT_NAME": "RESURS-P 4",
    "OBJECT_ID": "2024-061A",
    "EPOCH": "2025-04-16T22:40:18.518592",
    "MEAN_MOTION": 15.33564206,
    "ECCENTRICITY": 0.0002704,
    "INCLINATION": 97.2269,
    "RA_OF_ASC_NODE": 58.5537,
    "ARG_OF_PERICENTER": 66.393,
    "MEAN_ANOMALY": 293.7597,
    "EPHEMERIS_TYPE": 0,
    "CLASSIFICATION_TYPE": "U",
    "NORAD_CAT_ID": 59371,
    "ELEMENT_SET_NO": 999,
    "REV_AT_EPOCH": 5848,
    "BSTAR": 0.00043049,
    "MEAN_MOTION_DOT": 0.00013902,
    "MEAN_MOTION_DDOT": 0
  },
  {
    "OBJECT_NAME": "LEGION 1",
    "OBJECT_ID": "2024-081A",
    "EPOCH": "2025-04-16T22:39:15.624576",
    "MEAN_MOTION": 15.16684117,
    "ECCENTRICITY": 0.0003999,
    "INCLINATION": 97.5381,
    "RA_OF_ASC_NODE": 183.1461,
    "ARG_OF_PERICENTER": 250.1174,
    "MEAN_ANOMALY": 109.9628,
    "EPHEMERIS_TYPE": 0,
    "CLASSIFICATION_TYPE": "U",
    "NORAD_CAT_ID": 59625,
    "ELEMENT_SET_NO": 999,
    "REV_AT_EPOCH": 5292,
    "BSTAR": 0.0009823,
    "MEAN_MOTION_DOT": 0.00019207,
    "MEAN_MOTION_DDOT": 0
  },
  {
    "OBJECT_NAME": "LEGION 2",
    "OBJECT_ID": "2024-081B",
    "EPOCH": "2025-04-16T21:48:18.236160",
    "MEAN_MOTION": 15.16304886,
    "ECCENTRICITY": 0.0003483,
    "INCLINATION": 97.538,
    "RA_OF_ASC_NODE": 183.1947,
    "ARG_OF_PERICENTER": 303.9434,
    "MEAN_ANOMALY": 56.1467,
    "EPHEMERIS_TYPE": 0,
    "CLASSIFICATION_TYPE": "U",
    "NORAD_CAT_ID": 59626,
    "ELEMENT_SET_NO": 999,
    "REV_AT_EPOCH": 5292,
    "BSTAR": 0.0009667,
    "MEAN_MOTION_DOT": 0.00018696,
    "MEAN_MOTION_DDOT": 0
  },
  {
    "OBJECT_NAME": "ALOS-4 (DAICHI-4)",
    "OBJECT_ID": "2024-123A",
    "EPOCH": "2025-04-16T20:50:50.821728",
    "MEAN_MOTION": 14.79500742,
    "ECCENTRICITY": 0.0001513,
    "INCLINATION": 97.92,
    "RA_OF_ASC_NODE": 205.1563,
    "ARG_OF_PERICENTER": 103.1731,
    "MEAN_ANOMALY": 256.965,
    "EPHEMERIS_TYPE": 0,
    "CLASSIFICATION_TYPE": "U",
    "NORAD_CAT_ID": 60182,
    "ELEMENT_SET_NO": 999,
    "REV_AT_EPOCH": 4284,
    "BSTAR": 0.0020039,
    "MEAN_MOTION_DOT": 0.00014957,
    "MEAN_MOTION_DDOT": 0
  }
]
