SENTINEL-6              
1 46984U 20086A   25106.94704386 -.00000042  00000+0  83640-4 0  9993
2 46984  66.0408 300.3607 0007858 271.4750  88.5365 12.80929629205730
GAOFEN-12 02            
1 48079U 21026A   25106.94441030  .00001694  00000+0  22907-3 0  9990
2 48079  97.9735 102.3174 0002965 135.6797 224.4652 14.80332002218692
PLEIADES NEO 3          
1 48268U 21034A   25106.71807909  .00002696  00000+0  34908-3 0  9992
2 48268  97.8940 182.6022 0000995 118.2362 241.8952 14.81680143214503
PLEIADES NEO 4          
1 49070U 21073E   25106.88690417  .00005329  00000+0  68311-3 0  9990
2 49070  97.8939 182.7636 0001067 127.0141 233.1169 14.81683128198241
LANDSAT 9               
1 49260U 21088A   25106.75909534  .00000917  00000+0  21357-3 0  9993
2 49260  98.1921 178.1645 0001152  87.9502 272.1828 14.57122281188904
CSG-2                   
1 51444U 22008A   25106.89120857  .00001441  00000+0  18751-3 0  9998
2 51444  97.8877 291.6809 0001432  87.1322 273.0055 14.82162201173442
GAOFEN-12 03            
1 52912U 22069A   25106.94730646  .00006955  00000+0  90231-3 0  9993
2 52912  97.8767 359.2052 0000941 289.2095  70.9016 14.81076504151567
SWOT                    
1 54754U 22173A   25106.90661697  .00000157  00000+0  10790-3 0  9990
2 54754  77.6091 250.7379 0000626 325.7805  34.3306 14.00169904119491
GAOFEN-12 04            
1 57654U 23123A   25106.91152896  .00006646  00000+0  86345-3 0  9993
2 57654  97.9113  26.1838 0003238  80.7464 279.4114 14.81027091 89572
PARS 1                  
1 59065U 24039Q   25106.89329051  .00030416  00000+0  88349-3 0  9992
2 59065  97.4362  74.3629 0010773 198.9038 161.1807 15.35376149 63024
RESURS-P 4              
1 59371U 24061A   25106.94465878  .00013902  00000+0  43049-3 0  9990
2 59371  97.2269  58.5537 0002704  66.3930 293.7597 15.33564206 58487
LEGION 1                
1 59625U 24081A   25106.94393084  .00019207  00000+0  98230-3 0  9999
2 59625  97.5381 183.1461 0003999 250.1174 109.9628 15.16684117 52929
LEGION 2                
1 59626U 24081B   25106.90854440  .00018696  00000+0  96670-3 0  9991
2 59626  97.5380 183.1947 0003483 303.9434  56.1467 15.16304886 52928
ALOS-4 (DAICHI-4)       
1 60182U 24123A   25106.86864377  .00014957  00000+0  20039-2 0  9993
2 60182  97.9200 205.1563 0001513 103.1731 256.9650 14.79500742 42844
